[{"OBJECT_NAME":"STARLINK-4737","OBJECT_ID":"2022-114S","EPOCH":"2026-03-09T22:31:40.993824","MEAN_MOTION":15.08819822,"ECCENTRICITY":0.00012615,"INCLINATION":53.2179,"RA_OF_ASC_NODE":302.6732,"ARG_OF_PERICENTER":91.4079,"MEAN_ANOMALY":268.7058,"EPHEMERIS_TYPE":0,"CLASSIFICATION_TYPE":"U","NORAD_CAT_ID":53834,"ELEMENT_SET_NO":999,"REV_AT_EPOCH":19287,"BSTAR":0.00013137446,"MEAN_MOTION_DOT":1.802e-5,"MEAN_MOTION_DDOT":0},{"OBJECT_NAME":"LEMUR-2-STELLA","OBJECT_ID":"2024-149BT","EPOCH":"2026-03-09T17:26:15.951264","MEAN_MOTION":15.09464064,"ECCENTRICITY":0.0001299,"INCLINATION":97.6764,"RA_OF_ASC_NODE":150.9122,"ARG_OF_PERICENTER":95.1117,"MEAN_ANOMALY":265.026,"EPHEMERIS_TYPE":0,"CLASSIFICATION_TYPE":"U","NORAD_CAT_ID":60533,"ELEMENT_SET_NO":999,"REV_AT_EPOCH":8548,"BSTAR":0.00085776432,"MEAN_MOTION_DOT":0.00013685,"MEAN_MOTION_DDOT":0}]
